OBJECT_NAME,OBJECT_ID,EPOCH,MEAN_MOTION,ECCENTRICITY,INCLINATION,RA_OF_ASC_NODE,ARG_OF_PERICENTER,MEAN_ANOMALY,EPHEMERIS_TYPE,CLASSIFICATION_TYPE,NORAD_CAT_ID,ELEMENT_SET_NO,REV_AT_EPOCH,BSTAR,MEAN_MOTION_DOT,MEAN_MOTION_DDOT
LEMUR-1,2014-033AL,2026-07-11T21:11:51.417600,14.85331099,.0048047,97.7903,342.1444,358.8650,1.2448,0,U,40044,999,64913,.10759E-3,.888E-5,0
LEMUR-2-GREENBERG,2017-042N,2026-07-09T11:53:19.376160,15.32031511,.00071356,97.3831,11.0293,283.6729,76.3718,0,U,42837,999,49180,.3749711E-3,.11532E-3,0
LEMUR-2-ANDIS,2017-042P,2026-07-11T18:03:36.826848,15.35830402,.00071288,97.3677,13.5506,272.8241,87.2186,0,U,42838,999,49222,.35908578E-3,.12453E-3,0
LEMUR-2-MONSON,2017-042Q,2026-07-10T11:15:45.883584,15.28674858,.00051568,97.4089,11.9359,266.7916,93.2733,0,U,42839,999,49172,.34676682E-3,.96E-4,0
LEMUR-2-FURIAUS,2017-042R,2026-07-10T17:54:39.577824,15.31036825,.00063598,97.3778,10.1778,347.2297,12.8782,0,U,42840,999,49181,.40490136E-3,.12077E-3,0
LEMUR-2-PETERG,2017-042S,2026-07-12T04:59:07.455552,15.34955040,.00031029,97.3991,18.2981,233.4276,126.6682,0,U,42841,999,49227,.34802472E-3,.11726E-3,0
LEMUR-2-DEMBITZ,2017-042T,2026-07-11T11:38:16.488384,15.31034137,.00050207,97.3826,13.9535,291.4687,68.6018,0,U,42842,999,49206,.30474705E-3,.9065E-4,0
LEMUR-2-ZACHARY,2017-042W,2026-07-11T18:21:57.867840,15.52486995,.00024338,97.3581,24.9630,265.2719,94.8256,0,U,42845,999,49301,.51731064E-3,.31651E-3,0
LEMUR-2-AMANDA-SVANTE,2021-034B,2026-07-11T22:23:01.371264,15.35822625,.0004497,97.5758,271.8961,151.4014,208.7477,0,U,48269,999,28485,.60136E-3,.20915E-3,0
LEMUR-2-SPECIAL-K,2021-034F,2026-07-12T05:15:01.611360,15.73622953,.00063244,97.5632,282.0516,216.8117,143.2713,0,U,48273,999,28561,.12138298E-2,.172789E-2,0
LEMUR-2-EMBRIONOVIS,2023-084AQ,2026-07-11T20:41:40.628256,15.38173955,.00080447,97.6309,338.0236,219.4230,140.6430,0,U,56970,999,17147,.24216305E-3,.9025E-4,0
LEMUR-2-DEVERILL-M-T,2023-100F,2026-07-12T02:44:23.176896,15.40988276,.00047854,99.4465,239.0952,309.8311,50.2507,0,U,57391,999,16508,.39345739E-3,.16119E-3,0
LEMUR-2-BASS,2023-174D,2026-07-12T04:04:18.212736,15.43927047,.00077875,97.3850,278.2440,87.2492,272.9648,0,U,58259,999,14921,.25715423E-3,.11618E-3,0
LEMUR-2-JK0903EM1407,2023-174CJ,2026-07-11T23:04:50.737440,15.52951542,.00039286,97.3924,284.1520,44.2300,315.9266,0,U,58336,999,14957,.28285667E-3,.17525E-3,0
LEMUR-2-MJR092620,2023-174CN,2026-07-12T05:14:14.792928,15.45789892,.00055754,97.3981,283.7232,40.0935,320.0724,0,U,58340,999,14951,.24815572E-3,.11937E-3,0
LEMUR-2-NIMBUS2000,2024-022A,2026-07-12T00:31:33.309984,15.41025605,.00090848,97.4089,43.3496,39.2199,320.9704,0,U,58899,999,13609,.33591077E-3,.13803E-3,0
LEMUR-2-VALHALLA,2024-022B,2026-07-12T00:36:43.645824,15.40423731,.00095604,97.4086,43.3264,34.6870,325.4998,0,U,58900,999,13609,.24564224E-3,.9868E-4,0
LEMUR-2-CAEL,2024-022E,2026-07-12T00:20:01.847328,15.41784380,.00074495,97.4071,44.2954,20.6211,339.5336,0,U,58903,999,13616,.2562332E-3,.10769E-3,0
LEMUR-2-JOHNNYTRUONG,2024-043BA,2026-07-11T21:18:11.342592,15.62371951,.0004233,97.5382,346.1580,102.8607,257.3124,0,U,59146,999,13189,.29809E-3,.26304E-3,0
LEMUR-2-TOMATOKECHUP,2024-149D,2026-07-11T19:02:16.185696,15.36537067,.00031228,97.3803,274.9096,128.0995,232.0531,0,U,60471,999,10594,.18430322E-3,.649E-4,0
LEMUR-2-STELLA,2024-149BT,2026-07-11T18:22:22.824480,15.12328256,.00011848,97.6740,275.3352,113.7387,246.3968,0,U,60533,999,10421,.37866771E-3,.6496E-4,0
LEMUR-2-MARHISYAM,2024-149BW,2026-07-11T18:07:21.622368,15.11737522,.00028216,97.6885,275.7985,75.4227,284.7316,0,U,60536,999,10419,.34253829E-3,.5773E-4,0
LEMUR-2-AHMED-ASRAR,2024-149DN,2026-07-11T18:21:43.523712,15.13261688,.00007717,97.7007,277.9980,214.4074,145.7107,0,U,60576,999,10428,.37730328E-3,.6643E-4,0
LEMUR-2-LLOYD,2024-149DP,2026-07-12T03:59:10.663296,15.09716355,.00047525,97.6751,274.3148,78.6462,281.5300,0,U,60577,999,10416,.38904839E-3,.621E-4,0
LEMUR-2-SQUIRRELCOMM,2024-149DQ,2026-07-12T00:24:57.912480,15.07428709,.00042727,97.6718,273.8533,342.4944,17.6135,0,U,60578,999,10414,.21585947E-3,.3206E-4,0
LEMUR-2-SIERRINI,2024-149DR,2026-07-12T01:09:24.779808,15.11469800,.00063696,97.6843,275.7574,98.6701,261.5251,0,U,60579,999,10421,.43429045E-3,.7287E-4,0
LEMUR-2-WILSON,2025-009CP,2026-07-12T04:34:18.711840,14.95272231,.0002236,97.7025,271.2168,341.0743,19.0394,0,U,62694,999,8109,.57380057E-4,.575E-5,0
LEMUR-2-STAR-FOX,2025-009CR,2026-07-12T04:43:59.553120,15.02819173,.00026162,97.6920,274.6272,53.8668,306.2799,0,U,62696,999,8131,.258913E-3,.3406E-4,0
LEMUR-2-ARIANNA,2025-009CU,2026-07-11T19:06:30.499776,15.02817181,.00029525,97.6857,273.9837,61.1158,299.0362,0,U,62699,999,8125,.27573678E-3,.3632E-4,0
LEMUR-2-ALISIA,2025-009DB,2026-07-12T04:02:56.519808,15.03147322,.00039042,97.6972,275.1716,138.4642,221.6881,0,U,62706,999,10391,.37072191E-3,.4948E-4,0
